CCSDS_OMM_VERS = 2.0
CREATION_DATE  = 
ORIGINATOR     = 

OBJECT_NAME    = UNKNOWN
OBJECT_ID      = 
CENTER_NAME    = EARTH
REF_FRAME      = TEME
TIME_SYSTEM    = UTC
MEAN_ELEMENT_THEORY = SGP/SGP4

EPOCH          = 2025-10-29T12:43:26.413248
MEAN_MOTION    = 13.18059351
ECCENTRICITY   = .0258596
INCLINATION    = 99.0636
RA_OF_ASC_NODE = 235.2803
ARG_OF_PERICENTER = 123.6505
MEAN_ANOMALY   = 238.9570

EPHEMERIS_TYPE = 0
CLASSIFICATION_TYPE = U
NORAD_CAT_ID   = 81552
ELEMENT_SET_NO = 999
REV_AT_EPOCH   = 57342
BSTAR          = .30528E-2
MEAN_MOTION_DOT = .1384E-4
MEAN_MOTION_DDOT = 0

CCSDS_OMM_VERS = 2.0
CREATION_DATE  = 
ORIGINATOR     = 

OBJECT_NAME    = UNKNOWN
OBJECT_ID      = 
CENTER_NAME    = EARTH
REF_FRAME      = TEME
TIME_SYSTEM    = UTC
MEAN_ELEMENT_THEORY = SGP/SGP4

EPOCH          = 2025-11-07T09:14:40.689024
MEAN_MOTION    = 13.31401222
ECCENTRICITY   = .0245792
INCLINATION    = 67.2976
RA_OF_ASC_NODE = 357.4399
ARG_OF_PERICENTER = 110.6712
MEAN_ANOMALY   = 271.0552

EPHEMERIS_TYPE = 0
CLASSIFICATION_TYPE = U
NORAD_CAT_ID   = 81599
ELEMENT_SET_NO = 999
REV_AT_EPOCH   = 58037
BSTAR          = .13067E-2
MEAN_MOTION_DOT = .676E-5
MEAN_MOTION_DDOT = 0

CCSDS_OMM_VERS = 2.0
CREATION_DATE  = 
ORIGINATOR     = 

OBJECT_NAME    = UNKNOWN
OBJECT_ID      = 
CENTER_NAME    = EARTH
REF_FRAME      = TEME
TIME_SYSTEM    = UTC
MEAN_ELEMENT_THEORY = SGP/SGP4

EPOCH          = 2025-11-03T10:07:26.065344
MEAN_MOTION    = 12.81211771
ECCENTRICITY   = .0166146
INCLINATION    = 56.4343
RA_OF_ASC_NODE = 324.9501
ARG_OF_PERICENTER = 81.7227
MEAN_ANOMALY   = 280.2501

EPHEMERIS_TYPE = 0
CLASSIFICATION_TYPE = U
NORAD_CAT_ID   = 81605
ELEMENT_SET_NO = 999
REV_AT_EPOCH   = 18116
BSTAR          = .78716E-2
MEAN_MOTION_DOT = .1829E-4
MEAN_MOTION_DDOT = 0

CCSDS_OMM_VERS = 2.0
CREATION_DATE  = 
ORIGINATOR     = 

OBJECT_NAME    = UNKNOWN
OBJECT_ID      = 
CENTER_NAME    = EARTH
REF_FRAME      = TEME
TIME_SYSTEM    = UTC
MEAN_ELEMENT_THEORY = SGP/SGP4

EPOCH          = 2025-10-11T11:25:02.279712
MEAN_MOTION    = 12.36334749
ECCENTRICITY   = .0362952
INCLINATION    = 101.8589
RA_OF_ASC_NODE = 282.2785
ARG_OF_PERICENTER = 268.6990
MEAN_ANOMALY   = 87.2477

EPHEMERIS_TYPE = 0
CLASSIFICATION_TYPE = U
NORAD_CAT_ID   = 81614
ELEMENT_SET_NO = 999
REV_AT_EPOCH   = 53028
BSTAR          = .31878E-1
MEAN_MOTION_DOT = .5042E-4
MEAN_MOTION_DDOT = 0

CCSDS_OMM_VERS = 2.0
CREATION_DATE  = 
ORIGINATOR     = 

OBJECT_NAME    = UNKNOWN
OBJECT_ID      = 
CENTER_NAME    = EARTH
REF_FRAME      = TEME
TIME_SYSTEM    = UTC
MEAN_ELEMENT_THEORY = SGP/SGP4

EPOCH          = 2025-11-07T06:31:10.629120
MEAN_MOTION    = 13.33708855
ECCENTRICITY   = .0776355
INCLINATION    = 65.8242
RA_OF_ASC_NODE = 144.7689
ARG_OF_PERICENTER = 153.1824
MEAN_ANOMALY   = 211.1660

EPHEMERIS_TYPE = 0
CLASSIFICATION_TYPE = U
NORAD_CAT_ID   = 81615
ELEMENT_SET_NO = 999
REV_AT_EPOCH   = 57813
BSTAR          = .14024E-2
MEAN_MOTION_DOT = .3984E-4
MEAN_MOTION_DDOT = 0

CCSDS_OMM_VERS = 2.0
CREATION_DATE  = 
ORIGINATOR     = 

OBJECT_NAME    = UNKNOWN
OBJECT_ID      = 
CENTER_NAME    = EARTH
REF_FRAME      = TEME
TIME_SYSTEM    = UTC
MEAN_ELEMENT_THEORY = SGP/SGP4

EPOCH          = 2025-11-04T22:04:30.882432
MEAN_MOTION    = 12.57494164
ECCENTRICITY   = .0039227
INCLINATION    = 101.2599
RA_OF_ASC_NODE = 125.0194
ARG_OF_PERICENTER = 309.9321
MEAN_ANOMALY   = 49.8311

EPHEMERIS_TYPE = 0
CLASSIFICATION_TYPE = U
NORAD_CAT_ID   = 81617
ELEMENT_SET_NO = 999
REV_AT_EPOCH   = 54835
BSTAR          = .24918E-2
MEAN_MOTION_DOT = .377E-5
MEAN_MOTION_DDOT = 0

CCSDS_OMM_VERS = 2.0
CREATION_DATE  = 
ORIGINATOR     = 

OBJECT_NAME    = UNKNOWN
OBJECT_ID      = 
CENTER_NAME    = EARTH
REF_FRAME      = TEME
TIME_SYSTEM    = UTC
MEAN_ELEMENT_THEORY = SGP/SGP4

EPOCH          = 2025-10-21T08:02:53.658528
MEAN_MOTION    = 14.69960147
ECCENTRICITY   = .0075563
INCLINATION    = 66.9769
RA_OF_ASC_NODE = 311.5994
ARG_OF_PERICENTER = 276.8564
MEAN_ANOMALY   = 82.3964

EPHEMERIS_TYPE = 0
CLASSIFICATION_TYPE = U
NORAD_CAT_ID   = 81624
ELEMENT_SET_NO = 999
REV_AT_EPOCH   = 63200
BSTAR          = .14128E-2
MEAN_MOTION_DOT = .8764E-4
MEAN_MOTION_DDOT = 0

CCSDS_OMM_VERS = 2.0
CREATION_DATE  = 
ORIGINATOR     = 

OBJECT_NAME    = UNKNOWN
OBJECT_ID      = 
CENTER_NAME    = EARTH
REF_FRAME      = TEME
TIME_SYSTEM    = UTC
MEAN_ELEMENT_THEORY = SGP/SGP4

EPOCH          = 2025-11-05T11:17:42.892512
MEAN_MOTION    = 12.57174306
ECCENTRICITY   = .0975584
INCLINATION    = 65.8263
RA_OF_ASC_NODE = 208.0747
ARG_OF_PERICENTER = 93.0122
MEAN_ANOMALY   = 278.2784

EPHEMERIS_TYPE = 0
CLASSIFICATION_TYPE = U
NORAD_CAT_ID   = 81640
ELEMENT_SET_NO = 999
REV_AT_EPOCH   = 50539
BSTAR          = .54308E-3
MEAN_MOTION_DOT = .527E-5
MEAN_MOTION_DDOT = 0

CCSDS_OMM_VERS = 2.0
CREATION_DATE  = 
ORIGINATOR     = 

OBJECT_NAME    = UNKNOWN
OBJECT_ID      = 
CENTER_NAME    = EARTH
REF_FRAME      = TEME
TIME_SYSTEM    = UTC
MEAN_ELEMENT_THEORY = SGP/SGP4

EPOCH          = 2025-11-03T04:14:57.794784
MEAN_MOTION    = 13.44278970
ECCENTRICITY   = .0366029
INCLINATION    = 102.1481
RA_OF_ASC_NODE = 187.4586
ARG_OF_PERICENTER = 87.9394
MEAN_ANOMALY   = 59.5576

EPHEMERIS_TYPE = 0
CLASSIFICATION_TYPE = U
NORAD_CAT_ID   = 81652
ELEMENT_SET_NO = 999
REV_AT_EPOCH   = 57333
BSTAR          = .93598E-3
MEAN_MOTION_DOT = .755E-5
MEAN_MOTION_DDOT = 0

CCSDS_OMM_VERS = 2.0
CREATION_DATE  = 
ORIGINATOR     = 

OBJECT_NAME    = UNKNOWN
OBJECT_ID      = 
CENTER_NAME    = EARTH
REF_FRAME      = TEME
TIME_SYSTEM    = UTC
MEAN_ELEMENT_THEORY = SGP/SGP4

EPOCH          = 2025-11-06T02:33:15.207264
MEAN_MOTION    = 14.47633397
ECCENTRICITY   = .001505
INCLINATION    = 74.0387
RA_OF_ASC_NODE = 105.0936
ARG_OF_PERICENTER = 46.9399
MEAN_ANOMALY   = 313.3018

EPHEMERIS_TYPE = 0
CLASSIFICATION_TYPE = U
NORAD_CAT_ID   = 81667
ELEMENT_SET_NO = 999
REV_AT_EPOCH   = 45134
BSTAR          = .10682E-2
MEAN_MOTION_DOT = .3917E-4
MEAN_MOTION_DDOT = 0

CCSDS_OMM_VERS = 2.0
CREATION_DATE  = 
ORIGINATOR     = 

OBJECT_NAME    = UNKNOWN
OBJECT_ID      = 
CENTER_NAME    = EARTH
REF_FRAME      = TEME
TIME_SYSTEM    = UTC
MEAN_ELEMENT_THEORY = SGP/SGP4

EPOCH          = 2025-11-06T15:48:29.213280
MEAN_MOTION    = 14.09773730
ECCENTRICITY   = .0033154
INCLINATION    = 66.8196
RA_OF_ASC_NODE = 95.1131
ARG_OF_PERICENTER = 249.8874
MEAN_ANOMALY   = 125.6125

EPHEMERIS_TYPE = 0
CLASSIFICATION_TYPE = U
NORAD_CAT_ID   = 81674
ELEMENT_SET_NO = 999
REV_AT_EPOCH   = 60863
BSTAR          = .11506E-2
MEAN_MOTION_DOT = .1954E-4
MEAN_MOTION_DDOT = 0

CCSDS_OMM_VERS = 2.0
CREATION_DATE  = 
ORIGINATOR     = 

OBJECT_NAME    = UNKNOWN
OBJECT_ID      = 
CENTER_NAME    = EARTH
REF_FRAME      = TEME
TIME_SYSTEM    = UTC
MEAN_ELEMENT_THEORY = SGP/SGP4

EPOCH          = 2025-11-03T01:23:09.990528
MEAN_MOTION    = 14.56926952
ECCENTRICITY   = .0025265
INCLINATION    = 81.2172
RA_OF_ASC_NODE = 337.2140
ARG_OF_PERICENTER = 61.4424
MEAN_ANOMALY   = 298.9311

EPHEMERIS_TYPE = 0
CLASSIFICATION_TYPE = U
NORAD_CAT_ID   = 81683
ELEMENT_SET_NO = 999
REV_AT_EPOCH   = 63008
BSTAR          = .73575E-3
MEAN_MOTION_DOT = .333E-4
MEAN_MOTION_DDOT = 0

