UNKNOWN                 
1 81552U          25302.53016682  .00001384  00000+0  30528-2 0  9999
2 81552  99.0636 235.2803 0258596 123.6505 238.9570 13.18059351573427
UNKNOWN                 
1 81599U          25311.38519316  .00000676  00000+0  13067-2 0  9997
2 81599  67.2976 357.4399 0245792 110.6712 271.0552 13.31401222580372
UNKNOWN                 
1 81605U          25307.42182946  .00001829  00000+0  78716-2 0  9993
2 81605  56.4343 324.9501 0166146  81.7227 280.2501 12.81211771181168
UNKNOWN                 
1 81614U          25284.47572083  .00005042  00000+0  31878-1 0  9995
2 81614 101.8589 282.2785 0362952 268.6990  87.2477 12.36334749530280
UNKNOWN                 
1 81615U          25311.27165080  .00003984  00000+0  14024-2 0  9998
2 81615  65.8242 144.7689 0776355 153.1824 211.1660 13.33708855578130
UNKNOWN                 
1 81617U          25308.91980188  .00000377  00000+0  24918-2 0  9997
2 81617 101.2599 125.0194 0039227 309.9321  49.8311 12.57494164548358
UNKNOWN                 
1 81624U          25294.33534327  .00008764  00000+0  14128-2 0  9995
2 81624  66.9769 311.5994 0075563 276.8564  82.3964 14.69960147632002
UNKNOWN                 
1 81640U          25309.47063533  .00000527  00000+0  54308-3 0  9995
2 81640  65.8263 208.0747 0975584  93.0122 278.2784 12.57174306505390
UNKNOWN                 
1 81652U          25307.17705781  .00000755  00000+0  93598-3 0  9998
2 81652 102.1481 187.4586 0366029  87.9394  59.5576 13.44278970573339
UNKNOWN                 
1 81667U          25310.10642601  .00003917  00000+0  10682-2 0  9997
2 81667  74.0387 105.0936 0015050  46.9399 313.3018 14.47633397451347
UNKNOWN                 
1 81674U          25310.65867145  .00001954  00000+0  11506-2 0  9992
2 81674  66.8196  95.1131 0033154 249.8874 125.6125 14.09773730608638
UNKNOWN                 
1 81683U          25307.05775452  .00003330  00000+0  73575-3 0  9996
2 81683  81.2172 337.2140 0025265  61.4424 298.9311 14.56926952630089
